OBJECT_NAME,OBJECT_ID,EPOCH,MEAN_MOTION,ECCENTRICITY,INCLINATION,RA_OF_ASC_NODE,ARG_OF_PERICENTER,MEAN_ANOMALY,EPHEMERIS_TYPE,CLASSIFICATION_TYPE,NORAD_CAT_ID,ELEMENT_SET_NO,REV_AT_EPOCH,BSTAR,MEAN_MOTION_DOT,MEAN_MOTION_DDOT
SIRION PATHFINDER-2,2018-099B,2026-06-19T13:26:41.343072,15.14564980,.00071567,97.4247,219.5613,294.5243,65.5242,0,U,43759,999,41298,.22261507E-3,.4043E-4,0
CORVUS BC4,2018-099K,2026-06-19T08:54:58.778496,15.12510338,.00080693,97.4063,213.2881,5.8995,354.2330,0,U,43767,999,41273,.18476874E-3,.3156E-4,0
M2 PATHFINDER,2020-037E,2026-06-19T13:46:25.067136,15.04681666,.00125074,97.8143,1.8325,139.3083,220.9080,0,U,45727,999,32585,.89866121E-4,.1202E-4,0
NETSAT-4,2020-068U,2026-06-19T00:06:19.215648,15.43912955,.00036223,97.8604,178.3912,329.8172,30.2865,0,U,46504,999,31605,.29598827E-3,.13363E-3,0
NETSAT-3,2020-068V,2026-06-19T11:11:10.043808,15.42747216,.00038889,97.8655,177.1036,352.2858,7.8328,0,U,46505,999,31603,.37774208E-3,.1643E-3,0
NETSAT-1,2020-068W,2026-06-19T11:35:06.578592,15.34687263,.00047818,97.8748,171.4257,25.4867,334.6610,0,U,46506,999,31565,.30210764E-3,.10074E-3,0
NETSAT-2,2020-068X,2026-06-19T13:25:58.285632,15.46083868,.00031486,97.8616,178.8939,19.0109,341.1256,0,U,46507,999,31610,.393457E-3,.19174E-3,0
GREENCUBE (IO-117),2022-080E,2026-06-19T08:43:01.159104,6.42583239,.00089135,70.1443,297.4882,289.1275,70.8419,0,U,53109,999,9220,0,-.3E-7,0
SITRO-AIS 5 (KATYS),2023-091L,2026-06-19T13:20:46.422240,15.29501818,.00127252,97.5056,234.4783,96.2389,264.0301,0,U,57176,999,16470,.33735987E-3,.9596E-4,0
SITRO-AIS 6 (CHIRKIN),2023-091AC,2026-06-19T12:58:20.095104,15.25970680,.00130956,97.5062,233.5691,99.2926,260.9794,0,U,57192,999,16464,.30575762E-3,.78E-4,0
SITRO-AIS 8 (ANOKHIN),2023-091AD,2026-06-19T13:39:19.216224,15.32190853,.00117409,97.5051,236.0896,92.7843,267.4742,0,U,57193,999,16481,.38120346E-3,.11798E-3,0
SITRO-AIS 7 (FARTUSHNIY),2023-091AE,2026-06-19T11:29:06.948960,15.25656984,.00129573,97.5059,233.3307,100.4109,259.8590,0,U,57194,999,16462,.29202383E-3,.7376E-4,0
SITRO-AIS 10 (BURDAEV),2023-091AK,2026-06-19T11:03:00.295776,15.38684557,.00073524,97.5075,241.0571,73.4214,286.7838,0,U,57199,999,16511,.44215807E-3,.16845E-3,0
SITRO-AIS 9 (SHCHUKIN),2023-091AM,2026-06-19T13:15:44.724672,15.38192058,.00076103,97.5074,240.8798,73.4458,286.7623,0,U,57201,999,16511,.42419738E-3,.159E-3,0
SITRO-AIS 12 (SMIRENNIY),2023-091AQ,2026-06-19T13:01:35.499936,15.38485681,.00071167,97.5087,241.3383,68.4056,291.7947,0,U,57204,999,16513,.43179338E-3,.1634E-3,0
SITRO-AIS 11 (SHEFFER),2023-091AU,2026-06-19T13:19:58.309536,15.38912254,.00070086,97.5085,241.5995,68.2793,291.9198,0,U,57208,999,16515,.43659127E-3,.16755E-3,0
SITRO-AIS 25,2024-039R,2026-06-19T14:05:27.567168,14.93523393,.01431448,95.3906,236.7419,320.2813,38.7998,0,U,59066,999,12508,.18536405E-3,.2352E-4,0
SITRO-AIS 26,2024-039S,2026-06-19T14:07:54.378912,14.93319326,.01435714,95.3909,236.6401,320.8816,38.2096,0,U,59067,999,12507,.16742054E-3,.2111E-4,0
SITRO-AIS 27,2024-039T,2026-06-19T15:00:32.983200,14.93739259,.01426065,95.3914,236.9380,319.3525,39.7123,0,U,59068,999,12510,.13999873E-3,.1775E-4,0
SITRO-AIS 28,2024-039U,2026-06-19T14:27:59.529312,14.93773534,.01424829,95.3912,236.9699,319.2618,39.8019,0,U,59071,999,12510,.16708242E-3,.2127E-4,0
GRBBETA,2024-128C,2026-06-19T13:01:48.406368,15.06650427,.00403525,61.9881,208.0011,135.1213,225.3155,0,U,60237,999,10662,.15906067E-3,.2191E-4,0
OOV-CUBE (TUBSAT-30),2024-128F,2026-06-19T14:00:53.114976,15.02780984,.00443389,61.9930,217.2156,134.2886,226.1856,0,U,60240,999,10647,.11022768E-3,.1296E-4,0
ROBUSTA-3A (MEDITERRANEE),2024-128J,2026-06-19T09:12:43.855488,15.11694010,.00411361,61.9845,200.4756,128.3668,232.1135,0,U,60243,999,10675,.25696862E-3,.4256E-4,0
LASARSAT,2024-247Q,2026-06-19T11:53:29.592096,15.46491567,.00079381,44.9733,249.2437,344.7299,15.3350,0,U,62391,999,8367,.57165975E-3,.2878E-3,0
CROCUBE,2024-247T,2026-06-19T11:46:17.971392,15.48397693,.00077409,44.9701,246.5654,349.0739,10.9982,0,U,62394,999,8370,.60621754E-3,.32668E-3,0
FORESAIL-1 PRIME,2025-276DS,2026-06-19T10:25:32.106432,15.18719306,.00039613,97.4197,243.6644,98.6161,261.5522,0,U,66778,999,3074,.19871349E-3,.4058E-4,0
KNACKSAT-2,1998-067XZ,2026-06-19T14:13:09.931584,15.60167582,.00089348,51.6307,282.3774,225.7617,134.2643,0,U,67683,999,2065,.49084338E-3,.40473E-3,0
